ONEWEB-0650             
1 55813U 23029T   24095.11645645  .00000113  00000+0  25024-3 0  9990
2 55813  87.9102 105.0174 0001645  98.1867 261.9452 13.19727029 53530
ONEWEB-0652             
1 55814U 23029U   24094.90897156  .00000082  00000+0  18722-3 0  9995
2 55814  87.8902  89.7624 0002077  86.0349 274.1018 13.14503210 53709
ONEWEB-0653             
1 55815U 23029V   24094.96923590  .00000297  00000+0  76783-3 0  9993
2 55815  87.8901  89.7282 0002012  77.2870 282.8484 13.14503500 54435
ONEWEB-0656             
1 55817U 23029X   24094.89424729  .00000115  00000+0  25158-3 0  9996
2 55817  87.9154  74.4511 0002621  92.2652 267.8782 13.20769342 54984
ONEWEB-0657             
1 55818U 23029Y   24094.96009118  .00000147  00000+0  33427-3 0  9999
2 55818  87.9100 105.0538 0002669 106.5927 253.5499 13.19725987 53512
ONEWEB-0658             
1 55819U 23029Z   24095.10698542  .00000017  00000+0  93404-5 0  9991
2 55819  87.9101 104.9606 0001341 103.1963 256.9319 13.19725633 53546
ONEWEB-0660             
1 55820U 23029AA  24094.94227379 -.00000083  00000+0 -25948-3 0  9991
2 55820  87.8897  89.7212 0001529  74.0320 286.0978 13.14503911 53748
